NORAD_CAT_ID,OBJECT_NAME,OBJECT_TYPE,EPOCH,MEAN_MOTION,ECCENTRICITY,INCLINATION,RA_OF_ASC_NODE,ARG_OF_PERICENTER,MEAN_ANOMALY,BSTAR,MEAN_MOTION_DOT,MEAN_MOTION_DDOT,TLE_LINE0,TLE_LINE1,TLE_LINE2,SEMIMAJOR_AXIS,PERIOD,APOGEE,PERIGEE,DECAYED
53849.0,STARLINK-4770,PAYLOAD,2023-02-02 02:38:43,15.08837751,0.0001203,53.2198,333.8236,87.4135,272.6995,4.1678e-05,3.75e-06,0.0,0 STARLINK-4770,1 53849U 22114AH  23033.11023035  .00000375  00000-0  41678-4 0  9990,2 53849  53.2198 333.8236 0001203  87.4135 272.6995 15.08837751 21605,6917.887,95.438,540.584,538.92,0.0
53849.0,STARLINK-4770,PAYLOAD,2023-02-02 05:49:29,15.08840919,0.0001318,53.2185,333.2269,86.7019,273.4124,3.7146e-05,3.03e-06,0.0,0 STARLINK-4770,1 53849U 22114AH  23033.24270709  .00000303  00000-0  37146-4 0  9992,2 53849  53.2185 333.2269 0001318  86.7019 273.4124 15.08840919 22166,6917.878,95.437,540.654,538.831,0.0
53849.0,STARLINK-4770,PAYLOAD,2023-02-03 04:04:53,15.08853969,0.0001322,53.2183,329.0654,88.5701,271.5443,0.00018891,2.721e-05,0.0,0 STARLINK-4770,1 53849U 22114AH  23034.17005820  .00002721  00000-0  18891-3 0  9996,2 53849  53.2183 329.0654 0001322  88.5701 271.5443 15.08853969 21765,6917.838,95.437,540.617,538.788,0.0
53849.0,STARLINK-4770,PAYLOAD,2023-02-03 19:58:45,15.08835203,0.0001114,53.2175,326.0907,85.9514,274.1606,6.5118e-05,7.49e-06,0.0,0 STARLINK-4770,1 53849U 22114AH  23034.83246932  .00000749  00000-0  65118-4 0  9993,2 53849  53.2175 326.0907 0001114  85.9514 274.1606 15.08835203 21868,6917.895,95.438,540.531,538.989,0.0
53849.0,STARLINK-4770,PAYLOAD,2023-02-04 19:49:32,15.08838845,0.0001263,53.2172,321.6308,84.3541,275.7595,-5.5429e-05,-1.17e-05,0.0,0 STARLINK-4770,1 53849U 22114AH  23035.82606828 -.00001170  00000-0 -55429-4 0  9992,2 53849  53.2172 321.6308 0001263  84.3541 275.7595 15.08838845 22555,6917.884,95.438,540.623,538.875,0.0
53849.0,STARLINK-4770,PAYLOAD,2023-02-04 23:00:18,15.08840999,0.0001245,53.218,321.0374,90.3454,269.7681,-2.9383e-05,-7.55e-06,0.0,0 STARLINK-4770,1 53849U 22114AH  23035.95854609 -.00000755  00000-0 -29383-4 0  9996,2 53849  53.2180 321.0374 0001245  90.3454 269.7681 15.08840999 22036,6917.877,95.437,540.604,538.881,0.0
53849.0,STARLINK-4770,PAYLOAD,2023-02-05 13:18:46,15.08838397,0.0001364,53.218,318.362,89.6246,270.4903,9.6524e-05,1.249e-05,0.0,0 STARLINK-4770,1 53849U 22114AH  23036.55470921  .00001249  00000-0  96524-4 0  9992,2 53849  53.2180 318.3620 0001364  89.6246 270.4903 15.08838397 22665,6917.885,95.438,540.694,538.807,0.0
53849.0,STARLINK-4770,PAYLOAD,2023-02-05 18:04:56,15.08831137,7.46e-05,53.2179,317.4694,67.5356,292.5715,2.4177e-05,9.7e-07,0.0,0 STARLINK-4770,1 53849U 22114AH  23036.75343374  .00000097  00000-0  24177-4 0  9990,2 53849  53.2179 317.4694 0000746  67.5356 292.5715 15.08831137 22159,6917.907,95.438,540.289,539.256,0.0
53849.0,STARLINK-4770,PAYLOAD,2023-02-05 21:15:42,15.08837099,6.36e-05,53.218,316.8742,26.5636,333.5389,-2.6193e-05,-7.04e-06,0.0,0 STARLINK-4770,1 53849U 22114AH  23036.88591183 -.00000704  00000-0 -26193-4 0  9994,2 53849  53.2180 316.8742 0000636  26.5636 333.5389 15.08837099 22710,6917.889,95.438,540.194,539.314,0.0
53849.0,STARLINK-4770,PAYLOAD,2023-02-06 03:37:15,15.08841679,7.53e-05,53.2186,315.6844,75.7364,284.3712,0.00010518,1.387e-05,0.0,0 STARLINK-4770,1 53849U 22114AH  23037.15086985  .00001387  00000-0  10518-3 0  9993,2 53849  53.2186 315.6844 0000753  75.7364 284.3712 15.08841679 22217,6917.875,95.437,540.261,539.219,0.0
53849.0,STARLINK-4770,PAYLOAD,2023-02-06 17:55:43,15.08840774,0.0001021,53.2186,313.0084,91.295,268.8159,0.00015532,2.185e-05,0.0,0 STARLINK-4770,1 53849U 22114AH  23037.74703083  .00002185  00000-0  15532-3 0  9991,2 53849  53.2186 313.0084 0001021  91.2950 268.8159 15.08840774 22844,6917.878,95.438,540.449,539.037,0.0
53849.0,STARLINK-4770,PAYLOAD,2023-02-07 01:52:38,15.08852514,0.0001173,53.2182,311.523,79.7496,280.3628,0.00033393,5.032e-05,0.0,0 STARLINK-4770,1 53849U 22114AH  23038.07822582  .00005032  00000-0  33393-3 0  9993,2 53849  53.2182 311.5230 0001173  79.7496 280.3628 15.08852514 22351,6917.842,95.437,540.519,538.896,0.0
53849.0,STARLINK-4770,PAYLOAD,2023-02-07 17:46:30,15.08844306,0.0001241,53.219,308.5503,76.9497,283.1634,0.0002306,3.384e-05,0.0,0 STARLINK-4770,1 53849U 22114AH  23038.74062984  .00003384  00000-0  23060-3 0  9997,2 53849  53.2190 308.5503 0001241  76.9497 283.1634 15.08844306 22993,6917.867,95.437,540.591,538.874,0.0
53849.0,STARLINK-4770,PAYLOAD,2023-02-07 22:32:39,15.08847371,0.0001182,53.2187,307.6591,73.5028,286.6094,0.00022553,3.304e-05,0.0,0 STARLINK-4770,1 53849U 22114AH  23038.93934751  .00003304  00000-0  22553-3 0  9996,2 53849  53.2187 307.6591 0001182  73.5028 286.6094 15.08847371 22480,6917.858,95.437,540.541,538.905,0.0
53849.0,STARLINK-4770,PAYLOAD,2023-02-08 03:18:48,15.08861931,0.0001098,53.218,306.7636,90.6058,269.506,0.00046132,7.066e-05,0.0,0 STARLINK-4770,1 53849U 22114AH  23039.13805997  .00007066  00000-0  46132-3 0  9996,2 53849  53.2180 306.7636 0001098  90.6058 269.5060 15.08861931 22517,6917.813,95.436,540.438,538.919,0.0
53849.0,STARLINK-4770,PAYLOAD,2023-02-08 22:23:26,15.08837178,0.0001465,53.2186,303.1961,79.0213,281.0944,1.3711e-05,-7e-07,0.0,0 STARLINK-4770,1 53849U 22114AH  23039.93295010 -.00000070  00000-0  13711-4 0  9990,2 53849  53.2186 303.1961 0001465  79.0213 281.0944 15.08837178 23176,6917.889,95.438,540.767,538.741,0.0
53849.0,STARLINK-4770,PAYLOAD,2023-02-09 03:09:36,15.08848336,0.0001373,53.2177,302.3012,83.592,276.5228,0.0003678,5.572e-05,0.0,0 STARLINK-4770,1 53849U 22114AH  23040.13166753  .00005572  00000-0  36780-3 0  9996,2 53849  53.2177 302.3012 0001373  83.5920 276.5228 15.08848336 22662,6917.855,95.437,540.67,538.77,0.0
53849.0,STARLINK-4770,PAYLOAD,2023-02-09 20:38:51,15.08833792,0.0001535,53.2184,299.0266,87.2164,272.9004,0.00016058,2.268e-05,0.0,0 STARLINK-4770,1 53849U 22114AH  23040.86031615  .00002268  00000-0  16058-3 0  9999,2 53849  53.2184 299.0266 0001535  87.2164 272.9004 15.08833792 23319,6917.899,95.438,540.826,538.702,0.0
53849.0,STARLINK-4770,PAYLOAD,2023-02-10 03:00:23,15.08847434,0.0001407,53.2173,297.8401,97.3079,262.8073,0.00049028,7.525e-05,0.0,0 STARLINK-4770,1 53849U 22114AH  23041.12527069  .00007525  00000-0  49028-3 0  9996,2 53849  53.2173 297.8401 0001407  97.3079 262.8073 15.08847434 23355,6917.858,95.437,540.696,538.749,0.0
53849.0,STARLINK-4770,PAYLOAD,2023-02-10 23:40:24,15.08846764,0.0001487,53.2178,293.9738,98.0514,262.0647,0.00022909,3.361e-05,0.0,0 STARLINK-4770,1 53849U 22114AH  23041.98639187  .00003361  00000-0  22909-3 0  9998,2 53849  53.2178 293.9738 0001487  98.0514 262.0647 15.08846764 22948,6917.86,95.437,540.753,538.696,0.0
53849.0,STARLINK-4770,PAYLOAD,2023-02-11 17:09:39,15.08843911,0.0001809,53.2177,290.708,111.3386,248.7799,7.1563e-05,8.51e-06,0.0,0 STARLINK-4770,1 53849U 22114AH  23042.71503793  .00000851  00000-0  71563-4 0  9995,2 53849  53.2177 290.7080 0001809 111.3386 248.7799 15.08843911 23598,6917.868,95.437,540.985,538.482,0.0
53849.0,STARLINK-4770,PAYLOAD,2023-02-11 23:31:11,15.08840453,0.0001622,53.2177,289.5187,111.054,249.0626,5.2189e-05,5.43e-06,0.0,0 STARLINK-4770,1 53849U 22114AH  23042.97999503  .00000543  00000-0  52189-4 0  9992,2 53849  53.2177 289.5187 0001622 111.0540 249.0626 15.08840453 23090,6917.879,95.438,540.866,538.622,0.0
53849.0,STARLINK-4770,PAYLOAD,2023-02-12 09:03:30,15.0883283,0.0002,53.2171,287.7317,83.6029,276.5191,2.1756e-05,5.8e-07,0.0,0 STARLINK-4770,1 53849U 22114AH  23043.37744135  .00000058  00000-0  21756-4 0  9993,2 53849  53.2171 287.7317 0002000  83.6029 276.5191 15.08832830 23694,6917.902,95.438,541.151,538.384,0.0
53849.0,STARLINK-4770,PAYLOAD,2023-02-12 15:25:03,15.08833306,0.0002055,53.2169,286.5425,83.7189,276.4038,7.6064e-05,9.22e-06,0.0,0 STARLINK-4770,1 53849U 22114AH  23043.64240371  .00000922  00000-0  76064-4 0  9998,2 53849  53.2169 286.5425 0002055  83.7189 276.4038 15.08833306 23199,6917.901,95.438,541.187,538.344,0.0
53849.0,STARLINK-4770,PAYLOAD,2023-02-13 08:54:18,15.08833315,0.0001217,53.2167,283.2706,99.1302,260.9828,7.5035e-05,9.06e-06,0.0,0 STARLINK-4770,1 53849U 22114AH  23044.37104361  .00000906  00000-0  75035-4 0  9996,2 53849  53.2167 283.2706 0001217  99.1302 260.9828 15.08833315 23847,6917.901,95.438,540.608,538.924,0.0
53849.0,STARLINK-4770,PAYLOAD,2023-02-13 16:51:14,15.08835269,0.0001214,53.2157,281.7841,96.1398,263.9733,0.00016708,2.372e-05,0.0,0 STARLINK-4770,1 53849U 22114AH  23044.70224672  .00002372  00000-0  16708-3 0  9991,2 53849  53.2157 281.7841 0001214  96.1398 263.9733 15.08835269 23352,6917.895,95.438,540.6,538.92,0.0
53849.0,STARLINK-4770,PAYLOAD,2023-02-14 00:48:09,15.08847333,0.0001512,53.2156,280.2967,92.3377,267.7788,0.00039158,5.951e-05,0.0,0 STARLINK-4770,1 53849U 22114AH  23045.03344393  .00005951  00000-0  39158-3 0  9991,2 53849  53.2156 280.2967 0001512  92.3377 267.7788 15.08847333 23403,6917.858,95.437,540.769,538.677,0.0
53849.0,STARLINK-4770,PAYLOAD,2023-02-14 08:45:05,15.0884029,0.0001542,53.2169,278.8115,85.1423,274.9745,0.00020894,3.039e-05,0.0,0 STARLINK-4770,1 53849U 22114AH  23045.36464767  .00003039  00000-0  20894-3 0  9997,2 53849  53.2169 278.8115 0001542  85.1423 274.9745 15.08840290 23453,6917.88,95.438,540.811,538.678,0.0
53849.0,STARLINK-4770,PAYLOAD,2023-02-14 15:06:38,15.08840771,0.0001459,53.2186,277.6242,78.288,281.8276,0.0002495,3.685e-05,0.0,0 STARLINK-4770,1 53849U 22114AH  23045.62960805  .00003685  00000-0  24950-3 0  9994,2 53849  53.2186 277.6242 0001459  78.2880 281.8276 15.08840771 24032,6917.878,95.438,540.752,538.734,0.0
53849.0,STARLINK-4770,PAYLOAD,2023-02-15 02:14:19,15.08848447,0.0001407,53.2155,275.54,82.3316,277.7835,0.00029098,4.347e-05,0.0,0 STARLINK-4770,1 53849U 22114AH  23046.09328430  .00004347  00000-0  29098-3 0  9992,2 53849  53.2155 275.5400 0001407  82.3316 277.7835 15.08848447 24105,6917.855,95.437,540.693,538.746,0.0
